ONEWEB-0228             
1 48780U 21045P   24126.86674234  .00000103  00000+0  24071-3 0  9994
2 48780  87.9049  52.8681 0001827  82.5019 277.6318 13.15550197142782
